[{"OBJECT_NAME":"STARLINK-4585","OBJECT_ID":"2022-101AS","EPOCH":"2026-03-09T22:54:17.275968","MEAN_MOTION":15.08840388,"ECCENTRICITY":0.00012284,"INCLINATION":53.2193,"RA_OF_ASC_NODE":53.0339,"ARG_OF_PERICENTER":92.781,"MEAN_ANOMALY":267.3323,"EPHEMERIS_TYPE":0,"CLASSIFICATION_TYPE":"U","NORAD_CAT_ID":53567,"ELEMENT_SET_NO":999,"REV_AT_EPOCH":19648,"BSTAR":0.00010778359,"MEAN_MOTION_DOT":1.428e-5,"MEAN_MOTION_DDOT":0},{"OBJECT_NAME":"SL-6 R\/B(2)","OBJECT_ID":"1990-055D","EPOCH":"2026-03-09T21:41:59.551872","MEAN_MOTION":15.03595553,"ECCENTRICITY":0.00247741,"INCLINATION":62.7825,"RA_OF_ASC_NODE":253.121,"ARG_OF_PERICENTER":347.1508,"MEAN_ANOMALY":12.8957,"EPHEMERIS_TYPE":0,"CLASSIFICATION_TYPE":"U","NORAD_CAT_ID":20666,"ELEMENT_SET_NO":999,"REV_AT_EPOCH":93822,"BSTAR":0.00020900577,"MEAN_MOTION_DOT":2.688e-5,"MEAN_MOTION_DDOT":0}]
